0 OPS 4682 DEB
1 18533U 65027AD  13282.93163693  .00000225  00000-0  77474-3 0  7827
2 18533 090.2791 248.4213 0027729 046.8728 009.1451 12.94885211294372
0 OPS 4682 DEB
1 18533U 65027AD  13285.35068206  .00000670  00000-0  23634-2 0  7833
2 18533 090.2795 248.4829 0027625 040.8964 125.3838 12.94882346294680
0 OPS 4682 DEB
1 18533U 65027AD  13286.87403912  .00000454  00000-0  15929-2 0  7847
2 18533 090.2799 248.5217 0027582 037.1826 026.3292 12.94883057294880
0 OPS 4682 DEB
1 18533U 65027AD  13288.36275571  .00000077  00000-0  24968-3 0  7857
2 18533 090.2802 248.5594 0027537 033.5745 125.7934 12.94888002295077
0 OPS 4682 DEB
1 18533U 65027AD  13289.36640981 -.00000166  00000-0 -61835-3 0  7865
2 18533 090.2806 248.5852 0027460 031.0284 124.3289 12.94891620295207
0 OPS 4682 DEB
1 18533U 65027AD  13290.37090385 -.00000340  00000-0 -12381-2 0  7871
2 18533 090.2807 248.6109 0027417 028.5688 126.6984 12.94892354295331
0 OPS 4682 DEB
1 18533U 65027AD  13293.82074558  .00000166  00000-0  56818-3 0  7887
2 18533 090.2809 248.6993 0027210 019.8864 008.1534 12.94885951295783
0 OPS 4682 DEB
1 18533U 65027AD  13294.82535214  .00000427  00000-0  14997-2 0  7891
2 18533 090.2809 248.7252 0027115 017.3465 011.1395 12.94883912295915
0 OPS 4682 DEB
1 18533U 65027AD  13296.08348372  .00000587  00000-0  20698-2 0  7902
2 18533 090.2808 248.7576 0027059 014.2363 115.8466 12.94882970296075
